SL-8 R/B                
1 11574U 79089B   26062.15635457  .00000279  00000+0  92482-4 0  9999
2 11574  74.0674 103.1389 0017122 276.4773  83.4434 14.42345443435161
SL-14 R/B               
1 11672U 80005B   26062.15046916  .00000683  00000+0  66594-4 0  9998
2 11672  82.5156 313.4385 0015602 179.6419 180.4814 14.90920937475516
SL-8 R/B                
1 12139U 81003B   26062.11247286  .00020716  00000+0  53549-3 0  9999
2 12139  82.9392 296.1055 0262721 201.4811 157.5238 15.10673845313688
SL-3 R/B                
1 12465U 81046B   26062.10018781  .00013912  00000+0  32548-3 0  9999
2 12465  81.2313 297.6564 0020118  44.5562 315.7294 15.41789085437413
SL-3 R/B                
1 12904U 81103B   26062.12927910  .00006925  00000+0  30811-3 0  9993
2 12904  81.1568 221.1275 0012539 310.6589  49.3551 15.21275610972239
SL-3 R/B                
1 13068U 82013B   26062.14011532  .00005574  00000+0  24191-3 0  9995
2 13068  81.1771 168.4450 0022304 199.7505 160.2865 15.21933387403355
SL-3 R/B                
1 13154U 82039B   26062.16306097  .00003119  00000+0  18849-3 0  9990
2 13154  81.1579 223.4863 0029898 345.7300  14.3077 15.10033286380656
SL-3 R/B                
1 13403U 82079B   26062.10431919  .00008281  00000+0  33111-3 0  9991
2 13403  81.1472 200.8511 0024823 187.0382 173.0507 15.24678066376690
SL-14 R/B               
1 13553U 82092B   26062.18234612  .00000579  00000+0  62257-4 0  9997
2 13553  82.5703 147.4851 0019438 326.3852  95.9933 14.86658329327965
SL-3 R/B                
1 13819U 83010B   26061.90121563  .00018932  00000+0  38385-3 0  9998
2 13819  81.1056  10.5663 0018486  72.4754 287.8509 15.46060551356895
SL-3 R/B                
1 14208U 83075B   26062.11725368  .00012686  00000+0  33691-3 0  9994
2 14208  97.6131  66.4463 0019703 251.6251 108.2851 15.38223095329147
COSMOS 1536             
1 14699U 84013A   26062.15306983  .00007531  00000+0  31156-3 0  9990
2 14699  82.5438 114.3482 0012827 309.1354  50.8742 15.23722038271626
SL-14 R/B               
1 14820U 84027B   26062.02672837  .00000566  00000+0  61946-4 0  9993
2 14820  82.5381 251.2636 0017943   0.5069 359.6162 14.85967980246644
SL-8 R/B                
1 15483U 85006B   26062.06646240  .00000191  00000+0  72060-4 0  9993
2 15483  74.0434 273.3369 0018721 192.6546 324.5251 14.37777951153079
SL-12 R/B(2)            
1 15772U 85042D   26062.15228647  .00000163  00000+0  94589-4 0  9990
2 15772  71.1065 101.5417 0033530 138.8468 283.6433 14.21980316113464
SL-14 R/B               
1 15945U 85069B   26061.94621061  .00000647  00000+0  70381-4 0  9995
2 15945  82.5270  31.2736 0017886 210.6632 149.3541 14.86423453171839
SL-16 R/B               
1 16182U 85097B   26062.20014719  .00000000  00000+0  24245-4 0  9997
2 16182  71.0037 154.2157 0009938 267.4020 114.7523 14.16599591 86314
